0 GOSAT (IBUKI)
1 33492U 09002A   13282.15815056 -.00000239  00000-0 -33645-4 0  8809
2 33492 098.0988 030.6877 0000924 098.7779 261.3525 14.67529623252264
0 GOSAT (IBUKI)
1 33492U 09002A   13282.49906337 -.00000235  00000-0 -32967-4 0  8812
2 33492 098.0988 031.0246 0000906 099.9841 260.1489 14.67529646252319
0 GOSAT (IBUKI)
1 33492U 09002A   13282.83997561 -.00000250  00000-0 -35594-4 0  8826
2 33492 098.0989 031.3620 0000892 101.6920 258.4384 14.67529431252363
0 GOSAT (IBUKI)
1 33492U 09002A   13283.18088779 -.00000226  00000-0 -31402-4 0  8835
2 33492 098.0990 031.6989 0000915 103.1179 257.0153 14.67529752252416
0 GOSAT (IBUKI)
1 33492U 09002A   13283.31725242 -.00000202  00000-0 -27208-4 0  8847
2 33492 098.0988 031.8337 0000871 106.1248 254.0101 14.67530060252439
0 GOSAT (IBUKI)
1 33492U 09002A   13283.65816358 -.00000172  00000-0 -21926-4 0  8840
2 33492 098.0990 032.1710 0000907 108.7434 251.3891 14.67530411252487
0 GOSAT (IBUKI)
1 33492U 09002A   13283.79452822 -.00000138  00000-0 -15767-4 0  8856
2 33492 098.0990 032.3059 0000974 109.0767 251.0580 14.67530801252500
0 GOSAT (IBUKI)
1 33492U 09002A   13284.13543876 -.00000047  00000-0  21112-6 0  8867
2 33492 098.0993 032.6430 0000979 107.7531 252.3833 14.67531938252550
0 GOSAT (IBUKI)
1 33492U 09002A   13285.43089745  .00000273  00000-0  56645-4 0  8891
2 33492 098.0992 033.9238 0000835 108.1423 251.9904 14.67535935252741
0 GOSAT (IBUKI)
1 33492U 09002A   13285.77180758  .00000402  00000-0  79333-4 0  8909
2 33492 098.0995 034.2616 0000967 104.4439 255.6915 14.67537420252799
0 GOSAT (IBUKI)
1 33492U 09002A   13286.11271684  .00000541  00000-0  10395-3 0  8914
2 33492 098.0994 034.5983 0000955 110.3569 249.7804 14.67539156252840
0 GOSAT (IBUKI)
1 33492U 09002A   13286.45362532  .00000648  00000-0  12282-3 0  8920
2 33492 098.0990 034.9353 0000898 105.6380 254.4920 14.67540492252897
0 GOSAT (IBUKI)
1 33492U 09002A   13286.79453557  .00000676  00000-0  12778-3 0  8937
2 33492 098.0992 035.2724 0000888 103.2494 256.8796 14.67541114252949
0 GOSAT (IBUKI)
1 33492U 09002A   13287.13544581  .00000691  00000-0  13030-3 0  8944
2 33492 098.0989 035.6089 0000883 104.6173 255.5122 14.67541683252992
0 GOSAT (IBUKI)
1 33492U 09002A   13287.47635610  .00000653  00000-0  12356-3 0  8954
2 33492 098.0989 035.9457 0000836 104.9077 255.2160 14.67541574253043
0 GOSAT (IBUKI)
1 33492U 09002A   13287.81726838 -.00001562  00000-0 -26716-3 0  8963
2 33492 098.0989 036.2842 0001090 120.0462 240.0136 14.67524082253090
0 GOSAT (IBUKI)
1 33492U 09002A   13288.15818239  .00000394  00000-0  77901-4 0  8972
2 33492 098.0997 036.6213 0000945 104.1955 255.9254 14.67538965253140
0 GOSAT (IBUKI)
1 33492U 09002A   13288.49909644  .00000154  00000-0  35674-4 0  8986
2 33492 098.0996 036.9584 0001077 108.0058 252.1039 14.67536153253199
0 GOSAT (IBUKI)
1 33492U 09002A   13288.84001267  .00000090  00000-0  24386-4 0  8997
2 33492 098.0996 037.2953 0001018 110.2810 249.8480 14.67535553253241
0 GOSAT (IBUKI)
1 33492U 09002A   13289.18092648 -.00000166  00000-0 -20721-4 0  9006
2 33492 098.0998 037.6325 0001147 106.7117 253.4049 14.67532655253290
0 GOSAT (IBUKI)
1 33492U 09002A   13289.52184221 -.00000239  00000-0 -33680-4 0  9013
2 33492 098.0996 037.9693 0001210 108.4964 251.6336 14.67531776253347
0 GOSAT (IBUKI)
1 33492U 09002A   13289.79457312 -.00000326  00000-0 -48958-4 0  9028
2 33492 098.0996 038.2392 0001095 107.2491 252.8809 14.67530816253386
0 GOSAT (IBUKI)
1 33492U 09002A   13290.13548767 -.00000436  00000-0 -68487-4 0  9035
2 33492 098.0999 038.5768 0001129 101.3473 258.7839 14.67529464253433
0 GOSAT (IBUKI)
1 33492U 09002A   13290.34003577 -.00000465  00000-0 -73611-4 0  9041
2 33492 098.0996 038.7790 0001126 101.5845 258.5482 14.67529095253464
0 GOSAT (IBUKI)
1 33492U 09002A   13290.68094885 -.00000498  00000-0 -79320-4 0  9050
2 33492 098.0998 039.1162 0001105 106.2581 253.8759 14.67528605253517
0 GOSAT (IBUKI)
1 33492U 09002A   13290.81731382 -.00000546  00000-0 -87753-4 0  9069
2 33492 098.0998 039.2510 0001126 105.7350 254.3963 14.67528067253533
0 GOSAT (IBUKI)
1 33492U 09002A   13291.15822774 -.00000591  00000-0 -95814-4 0  9071
2 33492 098.0998 039.5880 0001162 105.2905 254.8455 14.67527468253587
0 GOSAT (IBUKI)
1 33492U 09002A   13291.49914026 -.00000589  00000-0 -95464-4 0  9089
2 33492 098.0998 039.9248 0001115 105.1197 255.0165 14.67527354253630
0 GOSAT (IBUKI)
1 33492U 09002A   13291.84005259 -.00000595  00000-0 -96496-4 0  9091
2 33492 098.1000 040.2625 0001189 108.7936 251.3412 14.67527093253689
0 GOSAT (IBUKI)
1 33492U 09002A   13292.18096509 -.00000548  00000-0 -88209-4 0  9100
2 33492 098.1000 040.5994 0001219 111.5025 248.6379 14.67527525253733
0 GOSAT (IBUKI)
1 33492U 09002A   13292.52187529 -.00000478  00000-0 -75912-4 0  9111
2 33492 098.0998 040.9365 0001140 115.4583 244.6763 14.67528188253783
0 GOSAT (IBUKI)
1 33492U 09002A   13292.79460515 -.00000428  00000-0 -66986-4 0  9126
2 33492 098.1001 041.2064 0001327 116.1935 243.9450 14.67528567253826
0 GOSAT (IBUKI)
1 33492U 09002A   13293.13551711 -.00000390  00000-0 -60224-4 0  9132
2 33492 098.1002 041.5436 0001319 117.4848 242.6508 14.67528720253877
0 GOSAT (IBUKI)
1 33492U 09002A   13293.47642935 -.00000355  00000-0 -54131-4 0  9140
2 33492 098.1002 041.8808 0001284 116.4654 243.6691 14.67528878253922
0 GOSAT (IBUKI)
1 33492U 09002A   13293.81734220 -.00000315  00000-0 -47141-4 0  9157
2 33492 098.1005 042.2184 0001301 113.4030 246.7323 14.67529020253973
0 GOSAT (IBUKI)
1 33492U 09002A   13294.15825514 -.00000301  00000-0 -44657-4 0  9167
2 33492 098.1004 042.5555 0001365 118.1453 241.9897 14.67528851254029
0 GOSAT (IBUKI)
1 33492U 09002A   13294.49916772 -.00000261  00000-0 -37503-4 0  9179
2 33492 098.1004 042.8928 0001416 117.5422 242.5928 14.67529049254079
0 GOSAT (IBUKI)
1 33492U 09002A   13294.84008061 -.00000172  00000-0 -21762-4 0  9183
2 33492 098.1005 043.2304 0001371 108.9597 251.1767 14.67529643254123
0 GOSAT (IBUKI)
1 33492U 09002A   13295.18099336 -.00000114  00000-0 -11646-4 0  9193
2 33492 098.1004 043.5673 0001467 117.3665 242.7708 14.67529907254179
0 GOSAT (IBUKI)
1 33492U 09002A   13295.52190559 -.00000069  00000-0 -37303-5 0  9200
2 33492 098.1004 043.9043 0001482 116.7752 243.3609 14.67530237254222
0 GOSAT (IBUKI)
1 33492U 09002A   13295.79463566 -.00000055  00000-0 -11620-5 0  9210
2 33492 098.1005 044.1738 0001454 113.2349 246.9006 14.67530319254265
0 GOSAT (IBUKI)
1 33492U 09002A   13296.13554840 -.00000019  00000-0  51581-5 0  9225
2 33492 098.1004 044.5107 0001456 116.0501 244.0862 14.67530578254313
